O3B MPOWER F1           
1 54755U 22174A   24060.78533523 -.00000016  00000+0  00000+0 0  9996
2 54755   0.0637   7.2194 0006447 342.6461 342.1693  5.00118356 23411
